NORAD_CAT_ID,OBJECT_NAME,OBJECT_TYPE,EPOCH,MEAN_MOTION,ECCENTRICITY,INCLINATION,RA_OF_ASC_NODE,ARG_OF_PERICENTER,MEAN_ANOMALY,BSTAR,MEAN_MOTION_DOT,MEAN_MOTION_DDOT,TLE_LINE0,TLE_LINE1,TLE_LINE2,SEMIMAJOR_AXIS,PERIOD,APOGEE,PERIGEE,DECAYED
54810.0,STARLINK-5408,PAYLOAD,2023-09-19 22:08:24,15.10494546,0.000143,53.217,112.2804,86.6491,273.4665,5.9204e-05,6.94e-06,0.0,0 STARLINK-5408,1 54810U 22175BE  23262.92250409  .00000694  00000-0  59204-4 0  9994,2 54810  53.2170 112.2804 0001430  86.6491 273.4665 15.10494546 44064,6912.828,95.333,535.681,533.704,0.0
54810.0,STARLINK-5408,PAYLOAD,2023-09-20 18:47:06,15.10466573,0.0001561,53.217,108.4055,117.6719,242.4433,-0.00010468,-2.034e-05,0.0,0 STARLINK-5408,1 54810U 22175BE  23263.78271415 -.00002034  00000-0 -10468-3 0  9999,2 54810  53.2170 108.4055 0001561 117.6719 242.4433 15.10466573 42035,6912.913,95.335,535.857,533.699,0.0
54810.0,STARLINK-5408,PAYLOAD,2023-09-20 20:22:23,15.10463666,0.0001368,53.2165,108.1116,88.8249,271.2901,-0.00012884,-2.436e-05,0.0,0 STARLINK-5408,1 54810U 22175BE  23263.84888708 -.00002436  00000-0 -12884-3 0  9995,2 54810  53.2165 108.1116 0001368  88.8249 271.2901 15.10463666 44207,6912.922,95.335,535.733,533.841,0.0
54810.0,STARLINK-5408,PAYLOAD,2023-09-21 13:50:29,15.1047463,0.0001248,53.2161,104.8352,113.3113,246.8011,-0.00011723,-2.243e-05,0.0,0 STARLINK-5408,1 54810U 22175BE  23264.57673170 -.00002243  00000-0 -11723-3 0  9998,2 54810  53.2161 104.8352 0001248 113.3113 246.8011 15.10474630 44314,6912.888,95.334,535.616,533.891,0.0
54810.0,STARLINK-5408,PAYLOAD,2023-09-21 17:01:03,15.10478721,0.0001242,53.2158,104.2403,105.6857,254.4273,-7.2101e-05,-1.493e-05,0.0,0 STARLINK-5408,1 54810U 22175BE  23264.70906410 -.00001493  00000-0 -72101-4 0  9993,2 54810  53.2158 104.2403 0001242 105.6857 254.4273 15.10478721 42176,6912.876,95.334,535.6,533.882,0.0
54810.0,STARLINK-5408,PAYLOAD,2023-09-21 20:11:36,15.10480229,0.0001143,53.2156,103.6462,99.7021,260.4101,-4.4103e-05,-1.027e-05,0.0,0 STARLINK-5408,1 54810U 22175BE  23264.84139848 -.00001027  00000-0 -44103-4 0  9995,2 54810  53.2156 103.6462 0001143  99.7021 260.4101 15.10480229 44353,6912.871,95.334,535.527,533.946,0.0
54810.0,STARLINK-5408,PAYLOAD,2023-09-21 23:22:10,15.10483212,0.0001257,53.2159,103.049,106.3149,253.7983,-2.6917e-05,-7.41e-06,0.0,0 STARLINK-5408,1 54810U 22175BE  23264.97373181 -.00000741  00000-0 -26917-4 0  9994,2 54810  53.2159 103.0490 0001257 106.3149 253.7983 15.10483212 42214,6912.862,95.334,535.596,533.858,0.0
54810.0,STARLINK-5408,PAYLOAD,2023-09-22 18:25:34,15.10469491,0.0001281,53.2162,99.475,99.7796,260.3341,0.00012395,1.771e-05,0.0,0 STARLINK-5408,1 54810U 22175BE  23265.76775489  .00001771  00000-0  12395-3 0  9995,2 54810  53.2162  99.4750 0001281  99.7796 260.3341 15.10469491 42333,6912.904,95.335,535.655,533.884,0.0
54810.0,STARLINK-5408,PAYLOAD,2023-09-22 20:00:50,15.10471859,0.0001255,53.2158,99.179,101.7625,258.3509,0.00013548,1.963e-05,0.0,0 STARLINK-5408,1 54810U 22175BE  23265.83392152  .00001963  00000-0  13548-3 0  9999,2 54810  53.2158  99.1790 0001255 101.7625 258.3509 15.10471859 44500,6912.897,95.334,535.63,533.894,0.0
54810.0,STARLINK-5408,PAYLOAD,2023-09-23 11:53:40,15.10476244,0.0001407,53.2154,96.2013,100.0056,260.1096,-8.269e-06,-4.3e-06,0.0,0 STARLINK-5408,1 54810U 22175BE  23266.49560708 -.00000430  00000-0 -82690-5 0  9992,2 54810  53.2154  96.2013 0001407 100.0056 260.1096 15.10476244 44607,6912.884,95.334,535.721,533.776,0.0
54810.0,STARLINK-5408,PAYLOAD,2023-09-23 19:50:04,15.10479404,0.0001288,53.2161,94.7112,94.7759,265.338,9.5029e-06,-1.34e-06,0.0,0 STARLINK-5408,1 54810U 22175BE  23266.82644584 -.00000134  00000-0  95029-5 0  9994,2 54810  53.2161  94.7112 0001288  94.7759 265.3380 15.10479404 42493,6912.874,95.334,535.629,533.849,0.0
54810.0,STARLINK-5408,PAYLOAD,2023-09-24 18:04:02,15.1047665,0.0001264,53.2163,90.5414,87.8918,272.2219,-4.7057e-05,-1.076e-05,0.0,0 STARLINK-5408,1 54810U 22175BE  23267.75280420 -.00001076  00000-0 -47057-4 0  9996,2 54810  53.2163  90.5414 0001264  87.8918 272.2219 15.10476650 42632,6912.882,95.334,535.621,533.874,0.0
54810.0,STARLINK-5408,PAYLOAD,2023-09-24 19:39:18,15.10480501,0.0001269,53.2166,90.2436,85.3607,274.7531,-2.4746e-05,-7.05e-06,0.0,0 STARLINK-5408,1 54810U 22175BE  23267.81896940 -.00000705  00000-0 -24746-4 0  9991,2 54810  53.2166  90.2436 0001269  85.3607 274.7531 15.10480501 44804,6912.871,95.334,535.613,533.858,0.0
54810.0,STARLINK-5408,PAYLOAD,2023-09-24 22:49:52,15.10482304,0.0001265,53.2165,89.6479,85.9236,274.1901,-7.2053e-06,-4.13e-06,0.0,0 STARLINK-5408,1 54810U 22175BE  23267.95130359 -.00000413  00000-0 -72053-5 0  9992,2 54810  53.2165  89.6479 0001265  85.9236 274.1901 15.10482304 42662,6912.865,95.334,535.605,533.856,0.0
54810.0,STARLINK-5408,PAYLOAD,2023-09-25 11:32:08,15.10470076,0.0001278,53.2171,87.2658,89.2234,270.8906,5.3184e-05,5.93e-06,0.0,0 STARLINK-5408,1 54810U 22175BE  23268.48065346  .00000593  00000-0  53184-4 0  9994,2 54810  53.2171  87.2658 0001278  89.2234 270.8906 15.10470076 44901,6912.902,95.335,535.651,533.884,0.0
54810.0,STARLINK-5408,PAYLOAD,2023-09-25 19:28:32,15.10485151,0.0001376,53.2168,85.7761,80.6099,279.505,4.4132e-05,4.42e-06,0.0,0 STARLINK-5408,1 54810U 22175BE  23268.81148549  .00000442  00000-0  44132-4 0  9994,2 54810  53.2168  85.7761 0001376  80.6099 279.5050 15.10485151 44959,6912.856,95.334,535.673,533.77,0.0
54810.0,STARLINK-5408,PAYLOAD,2023-09-26 17:42:30,15.1047159,0.0001521,53.2176,81.606,78.3716,281.7447,-5.5035e-05,-1.209e-05,0.0,0 STARLINK-5408,1 54810U 22175BE  23269.73785498 -.00001209  00000-0 -55035-4 0  9994,2 54810  53.2176  81.6060 0001521  78.3716 281.7447 15.10471590 42930,6912.898,95.334,535.814,533.711,0.0
54810.0,STARLINK-5408,PAYLOAD,2023-09-26 20:53:04,15.1047465,0.0001682,53.2175,81.009,72.4695,287.6482,-1.7448e-05,-5.83e-06,0.0,0 STARLINK-5408,1 54810U 22175BE  23269.87018877 -.00000583  00000-0 -17448-4 0  9999,2 54810  53.2175  81.0090 0001682  72.4695 287.6482 15.10474650 45112,6912.888,95.334,535.916,533.591,0.0
54810.0,STARLINK-5408,PAYLOAD,2023-09-27 11:10:36,15.1047264,0.0001649,53.2164,78.332,98.5068,261.6112,-1.7698e-05,-5.87e-06,0.0,0 STARLINK-5408,1 54810U 22175BE  23270.46570362 -.00000587  00000-0 -17698-4 0  9999,2 54810  53.2164  78.3320 0001649  98.5068 261.6112 15.10472640 45200,6912.895,95.334,535.899,533.62,0.0
54810.0,STARLINK-5408,PAYLOAD,2023-09-27 17:31:44,15.10478453,0.0001599,53.2164,77.1415,78.6762,281.441,-1.7088e-05,-5.77e-06,0.0,0 STARLINK-5408,1 54810U 22175BE  23270.73037383 -.00000577  00000-0 -17088-4 0  9992,2 54810  53.2164  77.1415 0001599  78.6762 281.4410 15.10478453 43089,6912.877,95.334,535.847,533.636,0.0
54810.0,STARLINK-5408,PAYLOAD,2023-09-28 20:31:31,15.10484653,0.000156,53.2167,72.0778,86.342,273.7751,9.2374e-05,1.246e-05,0.0,0 STARLINK-5408,1 54810U 22175BE  23271.85522367  .00001246  00000-0  92374-4 0  9990,2 54810  53.2167  72.0778 0001560  86.3420 273.7751 15.10484653 45413,6912.858,95.334,535.801,533.644,0.0
54810.0,STARLINK-5408,PAYLOAD,2023-09-29 13:59:38,15.10486418,0.0001914,53.2176,68.797,100.1583,259.9626,-0.00014459,-2.7e-05,0.0,0 STARLINK-5408,1 54810U 22175BE  23272.58307964 -.00002700  00000-0 -14459-3 0  9990,2 54810  53.2176  68.7970 0001914 100.1583 259.9626 15.10486418 45527,6912.853,95.334,536.041,533.394,0.0
54810.0,STARLINK-5408,PAYLOAD,2023-09-29 17:10:11,15.10479829,0.0001402,53.2168,68.2061,90.3213,269.794,9.3562e-06,-1.37e-06,0.0,0 STARLINK-5408,1 54810U 22175BE  23272.71541518 -.00000137  00000-0  93562-5 0  9995,2 54810  53.2168  68.2061 0001402  90.3213 269.7940 15.10479829 43384,6912.873,95.334,535.707,533.768,0.0
54810.0,STARLINK-5408,PAYLOAD,2023-10-01 02:31:07,15.10480778,0.0001306,53.2172,61.9519,89.9644,270.1498,-3.8347e-05,-9.31e-06,0.0,0 STARLINK-5408,1 54810U 22175BE  23274.10494555 -.00000931  00000-0 -38347-4 0  9990,2 54810  53.2172  61.9519 0001306  89.9644 270.1498 15.10480778 43594,6912.87,95.334,535.638,533.832,0.0
54810.0,STARLINK-5408,PAYLOAD,2023-10-01 13:38:05,15.10480385,0.0001266,53.2174,59.8672,85.8641,274.2497,-5.4174e-06,-3.83e-06,0.0,0 STARLINK-5408,1 54810U 22175BE  23274.56812231 -.00000383  00000-0 -54174-5 0  9993,2 54810  53.2174  59.8672 0001266  85.8641 274.2497 15.10480385 45825,6912.871,95.334,535.611,533.861,0.0
54810.0,STARLINK-5408,PAYLOAD,2023-10-01 16:48:38,15.10489748,0.0001284,53.217,59.2737,84.7787,275.3353,6.5904e-05,8.05e-06,0.0,0 STARLINK-5408,1 54810U 22175BE  23274.70044898  .00000805  00000-0  65904-4 0  9994,2 54810  53.2170  59.2737 0001284  84.7787 275.3353 15.10489748 43683,6912.842,95.333,535.595,533.82,0.0
54810.0,STARLINK-5408,PAYLOAD,2023-10-02 02:20:20,15.1048431,0.0001166,53.2166,57.4871,97.2461,262.8665,7.7891e-06,-1.63e-06,0.0,0 STARLINK-5408,1 54810U 22175BE  23275.09746011 -.00000163  00000-0  77891-5 0  9990,2 54810  53.2166  57.4871 0001166  97.2461 262.8665 15.10484310 43748,6912.859,95.334,535.53,533.918,0.0
54810.0,STARLINK-5408,PAYLOAD,2023-10-02 08:41:30,15.10466191,0.0001908,53.2176,56.2938,76.8472,283.2734,-9.7433e-05,-1.914e-05,0.0,0 STARLINK-5408,1 54810U 22175BE  23275.36215283 -.00001914  00000-0 -97433-4 0  9991,2 54810  53.2176  56.2938 0001908  76.8472 283.2734 15.10466191 43784,6912.914,95.335,536.098,533.46,0.0
54810.0,STARLINK-5408,PAYLOAD,2023-10-02 16:37:54,15.1046478,0.0001487,53.2174,54.8057,84.5786,275.5377,-0.00010344,-2.014e-05,0.0,0 STARLINK-5408,1 54810U 22175BE  23275.69299511 -.00002014  00000-0 -10344-3 0  9990,2 54810  53.2174  54.8057 0001487  84.5786 275.5377 15.10464780 45998,6912.919,95.335,535.811,533.756,0.0
54810.0,STARLINK-5408,PAYLOAD,2023-10-03 02:09:35,15.10471321,0.0001548,53.2184,53.0191,84.4317,275.6852,-3.7674e-05,-9.2e-06,0.0,0 STARLINK-5408,1 54810U 22175BE  23276.08999904 -.00000920  00000-0 -37674-4 0  9997,2 54810  53.2184  53.0191 0001548  84.4317 275.6852 15.10471321 43891,6912.899,95.334,535.834,533.693,0.0
